NORAD_CAT_ID,OBJECT_NAME,OBJECT_TYPE,EPOCH,MEAN_MOTION,ECCENTRICITY,INCLINATION,RA_OF_ASC_NODE,ARG_OF_PERICENTER,MEAN_ANOMALY,BSTAR,MEAN_MOTION_DOT,MEAN_MOTION_DDOT,TLE_LINE0,TLE_LINE1,TLE_LINE2,SEMIMAJOR_AXIS,PERIOD,APOGEE,PERIGEE,DECAYED
54762.0,STARLINK-5214,PAYLOAD,2023-01-05 20:00:01,15.64008062,0.0001307,53.2173,212.1457,67.1964,158.439,-0.013737,-0.01190261,0.0,0 STARLINK-5214,1 54762U 22175E   23005.83334491 -.01190261  00000-0 -13737-1 0  9990,2 54762  53.2173 212.1457 0001307  67.1964 158.4390 15.64008062  1309,6754.23,92.071,376.978,375.212,0.0
54762.0,STARLINK-5214,PAYLOAD,2023-01-06 08:00:01,15.62721362,0.0001197,53.2174,209.7061,88.0942,73.1951,-0.0144229999999999,-0.01187791,0.0,0 STARLINK-5214,1 54762U 22175E   23006.33334491 -.01187791  00000-0 -14423-1 0  9993,2 54762  53.2174 209.7061 0001197  88.0942  73.1951 15.62721362  2803,6757.937,92.147,380.611,378.99300000000005,0.0
54762.0,STARLINK-5214,PAYLOAD,2023-01-06 22:00:00,15.61234872,0.0001273,53.2171,206.8694,90.2459,113.0343,-0.015537,-0.01205226,0.0,0 STARLINK-5214,1 54762U 22175E   23006.91667824 -.01205226  00000-0 -15537-1 0  9997,2 54762  53.2171 206.8694 0001273  90.2459 113.0343 15.61234872  1300,6762.226,92.235,384.952,383.23,0.0
54762.0,STARLINK-5214,PAYLOAD,2023-01-07 06:00:00,15.6037141,0.0001139,53.2171,205.2484,85.4844,191.8124,-0.015964,-0.01198259,0.0,0 STARLINK-5214,1 54762U 22175E   23007.25001157 -.01198259  00000-0 -15964-1 0  9997,2 54762  53.2171 205.2484 0001139  85.4844 191.8124 15.60371410  1305,6764.72,92.286,387.356,385.815,0.0
54762.0,STARLINK-5214,PAYLOAD,2023-01-08 00:00:00,15.58431874,0.0001219,53.2171,201.6138,95.717,74.3434,-0.016906,-0.01179994,0.0,0 STARLINK-5214,1 54762U 22175E   23008.00001157 -.01179994  00000-0 -16906-1 0  9993,2 54762  53.2171 201.6138 0001219  95.7170  74.3434 15.58431874  1303,6770.331999999999,92.401,393.022,391.372,0.0
54762.0,STARLINK-5214,PAYLOAD,2023-01-08 06:00:00,15.5780378,0.000125,53.2167,200.4029,74.9806,58.169,-0.017661,-0.01201257,0.0,0 STARLINK-5214,1 54762U 22175E   23008.25001157 -.01201257  00000-0 -17661-1 0  9997,2 54762  53.2167 200.4029 0001250  74.9806  58.1690 15.57803780  3106,6772.151999999999,92.438,394.86300000000006,393.17,0.0
54762.0,STARLINK-5214,PAYLOAD,2023-01-08 14:00:01,15.56940553,0.0001303,53.2167,198.7913,82.9411,120.1029,-0.018087,-0.01191853,0.0,0 STARLINK-5214,1 54762U 22175E   23008.58334491 -.01191853  00000-0 -18087-1 0  9996,2 54762  53.2167 198.7913 0001303  82.9411 120.1029 15.56940553  1302,6774.655,92.489,397.402,395.637,0.0
54762.0,STARLINK-5214,PAYLOAD,2023-01-08 22:00:00,15.56082558,0.0001163,53.2169,197.1843,97.2507,174.6543,-0.018662,-0.0119086,0.0,0 STARLINK-5214,1 54762U 22175E   23008.91667824 -.01190860  00000-0 -18662-1 0  9998,2 54762  53.2169 197.1843 0001163  97.2507 174.6543 15.56082558  1305,6777.145,92.54,399.798,398.221,0.0
54762.0,STARLINK-5214,PAYLOAD,2023-01-09 08:00:01,15.55006237,0.0001104,53.2174,195.1734,73.1018,13.5005,-0.019296,-0.01183737,0.0,0 STARLINK-5214,1 54762U 22175E   23009.33335648 -.01183737  00000-0 -19296-1 0  9990,2 54762  53.2174 195.1734 0001104  73.1018  13.5005 15.55006237  3274,6780.271,92.604,402.885,401.388,0.0
54762.0,STARLINK-5214,PAYLOAD,2023-01-09 14:00:01,15.54381715,0.0001212,53.2167,193.9705,69.1794,337.3540000000001,-0.02021,-0.01227564,0.0,0 STARLINK-5214,1 54762U 22175E   23009.58334491 -.01227564  00000-0 -20210-1 0  9997,2 54762  53.2167 193.9705 0001212  69.1794 337.3540 15.54381715  1305,6782.088000000002,92.641,404.774,403.131,0.0
54762.0,STARLINK-5214,PAYLOAD,2023-01-10 00:00:00,15.53292381,0.0001235,53.2172,191.9687,88.0718,130.5219,-0.020521,-0.01200214,0.0,0 STARLINK-5214,1 54762U 22175E   23010.00001157 -.01200214  00000-0 -20521-1 0  9994,2 54762  53.2172 191.9687 0001235  88.0718 130.5219 15.53292381  1304,6785.258000000002,92.706,407.961,406.285,0.0
54762.0,STARLINK-5214,PAYLOAD,2023-01-10 10:00:00,15.52220705,0.0001036,53.2176,189.9669,87.5085,301.5314,-0.021363,-0.01201488,0.0,0 STARLINK-5214,1 54762U 22175E   23010.41667824 -.01201488  00000-0 -21363-1 0  9997,2 54762  53.2176 189.9669 0001036  87.5085 301.5314 15.52220705  3448,6788.380999999999,92.77,410.949,409.542,0.0
54762.0,STARLINK-5214,PAYLOAD,2023-01-10 14:00:01,15.51815922,0.0001218,53.217,189.1684,73.5633,167.1919,-0.022311,-0.01233482,0.0,0 STARLINK-5214,1 54762U 22175E   23010.58334491 -.01233482  00000-0 -22311-1 0  9999,2 54762  53.2170 189.1684 0001218  73.5633 167.1919 15.51815922  1307,6789.561,92.795,412.253,410.599,0.0
54762.0,STARLINK-5214,PAYLOAD,2023-01-10 22:00:00,15.50852422,0.0001206,53.2169,187.574,73.76,229.6997,-0.017998,-0.00968326,0.0,0 STARLINK-5214,1 54762U 22175E   23010.91667824 -.00968326  00000-0 -17998-1 0  9991,2 54762  53.2169 187.5740 0001206  73.7600 229.6997 15.50852422  1308,6792.373000000001,92.852,415.057,413.419,0.0
54762.0,STARLINK-5214,PAYLOAD,2023-01-11 08:00:01,15.49933614,0.0001101,53.2173,185.5783,76.541,33.866,-0.001373,-0.00077739,0.0,0 STARLINK-5214,1 54762U 22175E   23011.33334491 -.00077739  00000-0 -13730-2 0  9999,2 54762  53.2173 185.5783 0001101  76.5410  33.8660 15.49933614  3587,6795.057,92.907,417.67,416.174,0.0
54762.0,STARLINK-5214,PAYLOAD,2023-01-11 14:00:01,15.49887174,0.0001215,53.2175,184.3839,77.8223,348.2927,-5.7791e-05,-3.73e-05,0.0,0 STARLINK-5214,1 54762U 22175E   23011.58334491 -.00003730  00000-0 -57791-4 0  9993,2 54762  53.2175 184.3839 0001215  77.8223 348.2927 15.49887174  1306,6795.193,92.91,417.883,416.232,0.0
54762.0,STARLINK-5214,PAYLOAD,2023-01-11 22:00:00,15.49881604,0.0001219,53.2173,182.7923,72.2935,54.737,0.0001335,7.131e-05,0.0,0 STARLINK-5214,1 54762U 22175E   23011.91667824  .00007131  00000-0  13350-3 0  9998,2 54762  53.2173 182.7923 0001219  72.2935  54.7370 15.49881604  3678,6795.209,92.91,417.902,416.246,0.0
54762.0,STARLINK-5214,PAYLOAD,2023-01-12 22:00:00,15.49846501,0.0001689,53.215,178.0164,65.6908,244.0542,0.0011902999999999,0.00067598,0.0,0 STARLINK-5214,1 54762U 22175E   23012.91667824  .00067598  00000-0  11903-2 0  9993,2 54762  53.2150 178.0164 0001689  65.6908 244.0542 15.49846501  3835,6795.312,92.912,418.324,416.029,0.0
54762.0,STARLINK-5214,PAYLOAD,2023-01-13 14:00:01,15.49904986,0.0001619,53.2153,174.829,79.1246,352.4332,-0.00060816,-0.0003484,0.0,0 STARLINK-5214,1 54762U 22175E   23013.58334491 -.00034840  00000-0 -60816-3 0  9992,2 54762  53.2153 174.8290 0001619  79.1246 352.4332 15.49904986  1303,6795.141,92.909,418.106,415.906,0.0
54762.0,STARLINK-5214,PAYLOAD,2023-01-13 16:00:00,15.49897935,0.0001653,53.216,174.4309,74.9067,101.885,-0.00054743,-0.00031412,0.0,0 STARLINK-5214,1 54762U 22175E   23013.66667824 -.00031412  00000-0 -54743-3 0  9994,2 54762  53.2160 174.4309 0001653  74.9067 101.8850 15.49897935  3948,6795.161,92.909,418.15,415.903,0.0
54762.0,STARLINK-5214,PAYLOAD,2023-01-13 22:00:00,15.4986036,0.0001609,53.215,173.2372,72.7263,59.7563,0.00093317,0.00052823,0.0,0 STARLINK-5214,1 54762U 22175E   23013.91667824  .00052823  00000-0  93317-3 0  9999,2 54762  53.2150 173.2372 0001609  72.7263  59.7563 15.49860360  1301,6795.271,92.912,418.23,416.043,0.0
54762.0,STARLINK-5214,PAYLOAD,2023-01-14 08:00:01,15.49858884,0.0001531999999999,53.2146,171.2437,90.1169,208.5144,0.00079387,0.00044822,0.0,0 STARLINK-5214,1 54762U 22175E   23014.33334491  .00044822  00000-0  79387-3 0  9998,2 54762  53.2146 171.2437 0001532  90.1169 208.5144 15.49858884  4052,6795.276,92.912,418.182,416.099,0.0
54762.0,STARLINK-5214,PAYLOAD,2023-01-15 00:00:00,15.49892178,0.0001499,53.2139,168.0593,84.9471,335.4793,0.00021315,0.00011667,0.0,0 STARLINK-5214,1 54762U 22175E   23015.00001157  .00011667  00000-0  21315-3 0  9992,2 54762  53.2139 168.0593 0001499  84.9471 335.4793 15.49892178  4155,6795.178000000001,92.91,418.062,416.025,0.0
54762.0,STARLINK-5214,PAYLOAD,2023-01-15 14:00:01,15.49926433,0.0001401,53.2144,165.2711,90.753,346.2988,-0.0013932999999999,-0.00078853,0.0,0 STARLINK-5214,1 54762U 22175E   23015.58334491 -.00078853  00000-0 -13933-2 0  9993,2 54762  53.2144 165.2711 0001401  90.7530 346.2988 15.49926433  1308,6795.078,92.908,417.895,415.991,0.0
54762.0,STARLINK-5214,PAYLOAD,2023-01-15 22:00:01,15.49978799,0.0001411,53.2143,163.6788,80.8213,57.1912,-0.0049772,-0.00274189,0.0,0 STARLINK-5214,1 54762U 22175E   23015.91668981 -.00274189  00000-0 -49772-2 0  9994,2 54762  53.2143 163.6788 0001411  80.8213  57.1912 15.49978799  4290,6794.925,92.904,417.749,415.831,0.0
54762.0,STARLINK-5214,PAYLOAD,2023-01-16 08:00:01,15.49652929,9.67e-05,53.2146,161.6852,99.9166,204.1353,-0.022993,-0.01181187,0.0,0 STARLINK-5214,1 54762U 22175E   23016.33334491 -.01181187  00000-0 -22993-1 0  9998,2 54762  53.2146 161.6852 0000967  99.9166 204.1353 15.49652929  4361,6795.878000000001,92.924,418.4,417.085,0.0
54762.0,STARLINK-5214,PAYLOAD,2023-01-16 14:00:01,15.49014568,0.0001203,53.2148,160.4928,96.872,162.3701,-0.024311,-0.0121747,0.0,0 STARLINK-5214,1 54762U 22175E   23016.58334491 -.01217470  00000-0 -24311-1 0  9996,2 54762  53.2148 160.4928 0001203  96.8720 162.3701 15.49014568  1304,6797.745,92.962,420.427,418.792,0.0
54762.0,STARLINK-5214,PAYLOAD,2023-01-16 22:00:00,15.48174563,0.0001066999999999,53.2146,158.9034,89.4393,229.1297,-0.025337,-0.01230462,0.0,0 STARLINK-5214,1 54762U 22175E   23016.91667824 -.01230462  00000-0 -25337-1 0  9997,2 54762  53.2146 158.9034 0001067  89.4393 229.1297 15.48174563  1307,6800.203,93.013,422.794,421.343,0.0
54762.0,STARLINK-5214,PAYLOAD,2023-01-17 14:00:01,15.46430834,0.0001127999999999,53.2173,155.7259,80.2265,353.904,-0.025867,-0.01186147,0.0,0 STARLINK-5214,1 54762U 22175E   23017.58334491 -.01186147  00000-0 -25867-1 0  9990,2 54762  53.2173 155.7259 0001128  80.2265 353.9040 15.46430834  1302,6805.314,93.118,427.947,426.411,0.0
